{"type": "FeatureCollection", "features": [ {"type": "Feature", "properties": {"norad_id": 30515, "name": "FENGYUN 1C DEB", "group": "fengyun-1c-debris", "lat": 1.9565204165385677, "lon": 42.35551416089901, "alt_km": 1075.4245237420782, "timestamp": "2025-12-11T18:59:46.350257+00:00", "meta": {"OBJECT_NAME": "FENGYUN 1C DEB", "OBJECT_ID": "1999-025AJD", "EPOCH": "2025-12-10T21:19:59.079072", "MEAN_MOTION": 13.63780177, "ECCENTRICITY": 0.049691, "INCLINATION": 98.509, "RA_OF_ASC_NODE": 221.2687, "ARG_OF_PERICENTER": 79.5383, "MEAN_ANOMALY": 343.5608, "EPHEMERIS_TYPE": 0, "CLASSIFICATION_TYPE": "U", "NORAD_CAT_ID": 30515, "ELEMENT_SET_NO": 999, "REV_AT_EPOCH": 93305, "BSTAR": 0.0013299, "MEAN_MOTION_DOT": 2.416e-05, "MEAN_MOTION_DDOT": 0}, "tle": {"line1": "1 30515U 99025AJD 25344.88887823  .00002416  00000+0  13299-2 0  9997", "line2": "2 30515  98.5090 221.2687 0496910  79.5383 343.5608 13.63780177933051"}}, "geometry": {"type": "Point", "coordinates": [42.35551416089901, 1.9565204165385677]}}, {"type": "Feature", "properties": {"norad_id": 30516, "name": "FENGYUN 1C DEB", "group": "fengyun-1c-debris", "lat": 50.631130440797556, "lon": 78.81502681873098, "alt_km": 752.4223813434701, "timestamp": "2025-12-11T18:59:46.350268+00:00", "meta": {"OBJECT_NAME": "FENGYUN 1C DEB", "OBJECT_ID": "1999-025AJE", "EPOCH": "2025-12-11T05:34:03.172224", "MEAN_MOTION": 14.41305157, "ECCENTRICITY": 0.00090062, "INCLINATION": 98.8567, "RA_OF_ASC_NODE": 89.1902, "ARG_OF_PERICENTER": 295.7217, "MEAN_ANOMALY": 94.1663, "EPHEMERIS_TYPE": 0, "CLASSIFICATION_TYPE": "U", "NORAD_CAT_ID": 30516, "ELEMENT_SET_NO": 999, "REV_AT_EPOCH": 97693, "BSTAR": 0.003512965, "MEAN_MOTION_DOT": 0.00011338, "MEAN_MOTION_DDOT": 0}, "tle": {"line1": "1 30516U 99025AJE 25345.23198116  .00011338  00000+0  35130-2 0  9999", "line2": "2 30516  98.8567  89.1902 0009006 295.7217  94.1663 14.41305157976931"}}, "geometry": {"type": "Point", "coordinates": [78.81502681873098, 50.631130440797556]}}, {"type": "Feature", "properties": {"norad_id": 30520, "name": "FENGYUN 1C DEB", "group": "fengyun-1c-debris", "lat": -70.91346488795303, "lon": -175.21202687223476, "alt_km": 579.8248329523158, "timestamp": "2025-12-11T18:59:46.350278+00:00", "meta": {"OBJECT_NAME": "FENGYUN 1C DEB", "OBJECT_ID": "1999-025AJJ", "EPOCH": "2025-12-11T05:02:44.188224", "MEAN_MOTION": 15.13973181, "ECCENTRICITY": 0.00706172, "INCLINATION": 98.7189, "RA_OF_ASC_NODE": 157.7944, "ARG_OF_PERICENTER": 105.0769, "MEAN_ANOMALY": 255.8287, "EPHEMERIS_TYPE": 0, "CLASSIFICATION_TYPE": "U", "NORAD_CAT_ID": 30520, "ELEMENT_SET_NO": 999, "REV_AT_EPOCH": 1018, "BSTAR": 0.0021617914, "MEAN_MOTION_DOT": 0.00041842, "MEAN_MOTION_DDOT": 0}, "tle": {"line1": "1 30520U 99025AJJ 25345.21023366  .00041842  00000+0  21618-2 0  9995", "line2": "2 30520  98.7189 157.7944 0070617 105.0769 255.8287 15.13973181 10186"}}, "geometry": {"type": "Point", "coordinates": [-175.21202687223476, -70.91346488795303]}}, {"type": "Feature", "properties": {"norad_id": 30521, "name": "FENGYUN 1C DEB", "group": "fengyun-1c-debris", "lat": -74.18463860261981, "lon": 154.92057207012775, "alt_km": 628.5317702552948, "timestamp": "2025-12-11T18:59:46.350288+00:00", "meta": {"OBJECT_NAME": "FENGYUN 1C DEB", "OBJECT_ID": "1999-025AJK", "EPOCH": "2025-12-11T02:52:41.918304", "MEAN_MOTION": 14.58229584, "ECCENTRICITY": 0.01356142, "INCLINATION": 98.9883, "RA_OF_ASC_NODE": 120.2237, "ARG_OF_PERICENTER": 248.6387, "MEAN_ANOMALY": 110.0292, "EPHEMERIS_TYPE": 0, "CLASSIFICATION_TYPE": "U", "NORAD_CAT_ID": 30521, "ELEMENT_SET_NO": 999, "REV_AT_EPOCH": 99558, "BSTAR": 0.0012581746, "MEAN_MOTION_DOT": 6.539e-05, "MEAN_MOTION_DDOT": 0}, "tle": {"line1": "1 30521U 99025AJK 25345.11992961  .00006539  00000+0  12582-2 0  9995", "line2": "2 30521  98.9883 120.2237 0135614 248.6387 110.0292 14.58229584995582"}}, "geometry": {"type": "Point", "coordinates": [154.92057207012775, -74.18463860261981]}}, {"type": "Feature", "properties": {"norad_id": 30523, "name": "FENGYUN 1C DEB", "group": "fengyun-1c-debris", "lat": -63.789674157332534, "lon": -18.233711666686382, "alt_km": 980.7132436832435, "timestamp": "2025-12-11T18:59:46.350299+00:00", "meta": {"OBJECT_NAME": "FENGYUN 1C DEB", "OBJECT_ID": "1999-025AJM", "EPOCH": "2025-12-11T04:45:32.331168", "MEAN_MOTION": 14.27926706, "ECCENTRICITY": 0.02441163, "INCLINATION": 98.4657, "RA_OF_ASC_NODE": 323.5806, "ARG_OF_PERICENTER": 113.054, "MEAN_ANOMALY": 14.3632, "EPHEMERIS_TYPE": 0, "CLASSIFICATION_TYPE": "U", "NORAD_CAT_ID": 30523, "ELEMENT_SET_NO": 999, "REV_AT_EPOCH": 98078, "BSTAR": 0.00023795509, "MEAN_MOTION_DOT": 7.64e-06, "MEAN_MOTION_DDOT": 0}, "tle": {"line1": "1 30523U 99025AJM 25345.19829087  .00000764  00000+0  23796-3 0  9997", "line2": "2 30523  98.4657 323.5806 0244116 113.0540  14.3632 14.27926706980788"}}, "geometry": {"type": "Point", "coordinates": [-18.233711666686382, -63.789674157332534]}}, {"type": "Feature", "properties": {"norad_id": 30524, "name": "FENGYUN 1C DEB", "group": "fengyun-1c-debris", "lat": 19.064247218646972, "lon": 154.64492283852522, "alt_km": 1009.6913177825127, "timestamp": "2025-12-11T18:59:46.350310+00:00", "meta": {"OBJECT_NAME": "FENGYUN 1C DEB", "OBJECT_ID": "1999-025AJN", "EPOCH": "2025-12-10T10:07:44.855616", "MEAN_MOTION": 13.92138411, "ECCENTRICITY": 0.0207951, "INCLINATION": 99.3084, "RA_OF_ASC_NODE": 156.5184, "ARG_OF_PERICENTER": 256.4678, "MEAN_ANOMALY": 101.3238, "EPHEMERIS_TYPE": 0, "CLASSIFICATION_TYPE": "U", "NORAD_CAT_ID": 30524, "ELEMENT_SET_NO": 999, "REV_AT_EPOCH": 93853, "BSTAR": 0.0083154766, "MEAN_MOTION_DOT": 0.00012674, "MEAN_MOTION_DDOT": 0}, "tle": {"line1": "1 30524U 99025AJN 25344.42204694  .00012674  00000+0  83155-2 0  9991", "line2": "2 30524  99.3084 156.5184 0207951 256.4678 101.3238 13.92138411938530"}}, "geometry": {"type": "Point", "coordinates": [154.64492283852522, 19.064247218646972]}}, {"type": "Feature", "properties": {"norad_id": 30525, "name": "FENGYUN 1C DEB", "group": "fengyun-1c-debris", "lat": 13.707870690989973, "lon": -131.11232562378936, "alt_km": 934.4411765088953, "timestamp": "2025-12-11T18:59:46.350320+00:00", "meta": {"OBJECT_NAME": "FENGYUN 1C DEB", "OBJECT_ID": "1999-025AJP", "EPOCH": "2025-12-10T09:20:57.490656", "MEAN_MOTION": 13.58596638, "ECCENTRICITY": 0.02938195, "INCLINATION": 98.602, "RA_OF_ASC_NODE": 229.7722, "ARG_OF_PERICENTER": 315.6209, "MEAN_ANOMALY": 42.172, "EPHEMERIS_TYPE": 0, "CLASSIFICATION_TYPE": "U", "NORAD_CAT_ID": 30525, "ELEMENT_SET_NO": 999, "REV_AT_EPOCH": 93085, "BSTAR": 0.0023062223, "MEAN_MOTION_DOT": 2.193e-05, "MEAN_MOTION_DDOT": 0}, "tle": {"line1": "1 30525U 99025AJP 25344.38955429  .00002193  00000+0  23062-2 0  9992", "line2": "2 30525  98.6020 229.7722 0293819 315.6209  42.1720 13.58596638930856"}}, "geometry": {"type": "Point", "coordinates": [-131.11232562378936, 13.707870690989973]}}, {"type": "Feature", "properties": {"norad_id": 30526, "name": "FENGYUN 1C DEB", "group": "fengyun-1c-debris", "lat": 30.960391255816177, "lon": 62.2978993084768, "alt_km": 1194.8399371017404, "timestamp": "2025-12-11T18:59:46.350331+00:00", "meta": {"OBJECT_NAME": "FENGYUN 1C DEB", "OBJECT_ID": "1999-025AJQ", "EPOCH": "2025-12-09T04:34:45.464736", "MEAN_MOTION": 13.49895325, "ECCENTRICITY": 0.0305945, "INCLINATION": 99.5476, "RA_OF_ASC_NODE": 65.5968, "ARG_OF_PERICENTER": 273.6009, "MEAN_ANOMALY": 83.019, "EPHEMERIS_TYPE": 0, "CLASSIFICATION_TYPE": "U", "NORAD_CAT_ID": 30526, "ELEMENT_SET_NO": 999, "REV_AT_EPOCH": 92610, "BSTAR": 0.0018995751, "MEAN_MOTION_DOT": 1.568e-05, "MEAN_MOTION_DDOT": 0}, "tle": {"line1": "1 30526U 99025AJQ 25343.19080399  .00001568  00000+0  18996-2 0  9991", "line2": "2 30526  99.5476  65.5968 0305945 273.6009  83.0190 13.49895325926108"}}, "geometry": {"type": "Point", "coordinates": [62.2978993084768, 30.960391255816177]}}, {"type": "Feature", "properties": {"norad_id": 30527, "name": "FENGYUN 1C DEB", "group": "fengyun-1c-debris", "lat": 5.444954448876728, "lon": 28.21403918717343, "alt_km": 1365.7136799244554, "timestamp": "2025-12-11T18:59:46.350341+00:00", "meta": {"OBJECT_NAME": "FENGYUN 1C DEB", "OBJECT_ID": "1999-025AJR", "EPOCH": "2025-12-10T14:54:21.722400", "MEAN_MOTION": 13.31024778, "ECCENTRICITY": 0.0413156, "INCLINATION": 100.0642, "RA_OF_ASC_NODE": 28.037, "ARG_OF_PERICENTER": 231.5025, "MEAN_ANOMALY": 285.297, "EPHEMERIS_TYPE": 0, "CLASSIFICATION_TYPE": "U", "NORAD_CAT_ID": 30527, "ELEMENT_SET_NO": 999, "REV_AT_EPOCH": 91328, "BSTAR": 0.0022538, "MEAN_MOTION_DOT": 1.672e-05, "MEAN_MOTION_DDOT": 0}, "tle": {"line1": "1 30527U 99025AJR 25344.62108475  .00001672  00000+0  22538-2 0  9990", "line2": "2 30527 100.0642  28.0370 0413156 231.5025 285.2970 13.31024778913282"}}, "geometry": {"type": "Point", "coordinates": [28.21403918717343, 5.444954448876728]}}, {"type": "Feature", "properties": {"norad_id": 30528, "name": "FENGYUN 1C DEB", "group": "fengyun-1c-debris", "lat": 72.80049473843638, "lon": -172.44201429796834, "alt_km": 933.1143581914339, "timestamp": "2025-12-11T18:59:46.350352+00:00", "meta": {"OBJECT_NAME": "FENGYUN 1C DEB", "OBJECT_ID": "1999-025AJS", "EPOCH": "2025-12-11T02:25:47.462592", "MEAN_MOTION": 14.13490024, "ECCENTRICITY": 0.0143331, "INCLINATION": 98.238, "RA_OF_ASC_NODE": 214.8275, "ARG_OF_PERICENTER": 230.6989, "MEAN_ANOMALY": 294.4473, "EPHEMERIS_TYPE": 0, "CLASSIFICATION_TYPE": "U", "NORAD_CAT_ID": 30528, "ELEMENT_SET_NO": 999, "REV_AT_EPOCH": 97114, "BSTAR": 0.00051055665, "MEAN_MOTION_DOT": 1.02e-05, "MEAN_MOTION_DDOT": 0}, "tle": {"line1": "1 30528U 99025AJS 25345.10124378  .00001020  00000+0  51056-3 0  9990", "line2": "2 30528  98.2380 214.8275 0143331 230.6989 294.4473 14.13490024971144"}}, "geometry": {"type": "Point", "coordinates": [-172.44201429796834, 72.80049473843638]}}]}